ONEWEB-0461             
1 51649U 22012AD  24282.85520886  .00000056  00000+0  11008-3 0  9995
2 51649  87.9088 128.6349 0001613  82.4224 277.7090 13.17649877132723
ONEWEB-0463             
1 51650U 22012AE  24283.14039683  .00000164  00000+0  38960-3 0  9996
2 51650  87.9096 128.6292 0001547  83.9873 276.1435 13.17649533133842
ONEWEB-0464             
1 51651U 22012AF  24282.90425539 -.00000153  00000+0 -47425-3 0  9995
2 51651  87.8954 158.9535 0001956  83.4317 276.7033 13.10370552128617
ONEWEB-0468             
1 51652U 22012AG  24283.21632331 -.00000346  00000+0 -10269-2 0  9990
2 51652  87.8955 158.8841 0001702  79.1312 281.0007 13.10371226129928
ONEWEB-0473             
1 51653U 22012AH  24282.89597966  .00000407  00000+0  11298-2 0  9997
2 51653  87.8952 158.9510 0001609  81.1912 278.9397 13.10370846128591
ONEWEB-0474             
1 51654U 22012AJ  24282.88766955  .00000629  00000+0  17665-2 0  9993
2 51654  87.8946 158.9391 0001707  84.0909 276.0412 13.10372583128585
ONEWEB-0475             
1 51655U 22012AK  24283.07626557  .00000210  00000+0  50734-3 0  9990
2 51655  87.9090 128.6221 0001779 114.0341 246.0977 13.17647629133847
ONEWEB-0490             
1 54113U 22138A   24282.81988035  .00000237  00000+0  56047-3 0  9996
2 54113  87.9128  67.5419 0001786  96.5002 263.6335 13.19728583 96401
